start=new Date('2023-04-30T00:00:00.000Z').valueOf();
sats=[{"TLE_LINE1":"1 52451U 22049A   23119.17863386  .00001298  00000-0  99646-4 0  9990","BSTAR":"0.00009964600000","RCS_SIZE":"LARGE","EPHEMERIS_TYPE":"0","OBJECT_ID":"2022-049A","ARG_OF_PERICENTER":"90.5746","INCLINATION":"53.2173","NORAD_CAT_ID":"52451","REV_AT_EPOCH":"5427","MEAN_MOTION_DDOT":"0.0000000000000","MEAN_MOTION":"15.08835179","RA_OF_ASC_NODE":"82.6007","CLASSIFICATION_TYPE":"U","MEAN_ANOMALY":"269.5400","SEMIMAJOR_AXIS":"6917.895","GP_ID":"230930280","MEAN_MOTION_DOT":"0.00001298","REF_FRAME":"TEME","FILE":"3896517","OBJECT_TYPE":"PAYLOAD","MEAN_ELEMENT_THEORY":"SGP4","OBJECT_NAME":"STARLINK-3870","APOAPSIS":"540.687","TLE_LINE2":"2 52451  53.2173  82.6007 0001340  90.5746 269.5400 15.08835179 54273","TIME_SYSTEM":"UTC","LAUNCH_DATE":"2022-05-06","CENTER_NAME":"EARTH","PERIAPSIS":"538.833","SITE":"AFETR","ECCENTRICITY":"0.00013400","PERIOD":"95.438","COUNTRY_CODE":"US","ELEMENT_SET_NO":"999","DECAY_DATE":null,"EPOCH":"2023-04-29T04:17:13.965504"},{"MEAN_ANOMALY":"259.9439","CLASSIFICATION_TYPE":"U","GP_ID":"230939396","SEMIMAJOR_AXIS":"6912.878","OBJECT_TYPE":"PAYLOAD","FILE":"3896799","MEAN_MOTION_DOT":"-0.00000824","REF_FRAME":"TEME","NORAD_CAT_ID":"52452","INCLINATION":"53.2179","MEAN_MOTION_DDOT":"0.0000000000000","REV_AT_EPOCH":"5453","MEAN_MOTION":"15.10478224","RA_OF_ASC_NODE":"79.4832","OBJECT_ID":"2022-049B","EPHEMERIS_TYPE":"0","ARG_OF_PERICENTER":"100.1728","TLE_LINE1":"1 52452U 22049B   23119.85724903 -.00000824  00000-0 -31935-4 0  9990","RCS_SIZE":"LARGE","BSTAR":"-0.00003193500000","DECAY_DATE":null,"EPOCH":"2023-04-29T20:34:26.316192","COUNTRY_CODE":"US","ELEMENT_SET_NO":"999","PERIAPSIS":"533.677","SITE":"AFETR","PERIOD":"95.334","ECCENTRICITY":"0.00015410","MEAN_ELEMENT_THEORY":"SGP4","TIME_SYSTEM":"UTC","TLE_LINE2":"2 52452  53.2179  79.4832 0001541 100.1728 259.9439 15.10478224 54532","APOAPSIS":"535.808","OBJECT_NAME":"STARLINK-3909","LAUNCH_DATE":"2022-05-06","CENTER_NAME":"EARTH"},{"REV_AT_EPOCH":"5429","MEAN_MOTION_DDOT":"0.0000000000000","MEAN_MOTION":"15.08846815","RA_OF_ASC_NODE":"82.0372","INCLINATION":"53.2172","NORAD_CAT_ID":"52453","SEMIMAJOR_AXIS":"6917.860","GP_ID":"230929280","REF_FRAME":"TEME","MEAN_MOTION_DOT":"-0.00000177","FILE":"3896517","OBJECT_TYPE":"PAYLOAD","CLASSIFICATION_TYPE":"U","MEAN_ANOMALY":"257.1186","BSTAR":"0.00000698620000","RCS_SIZE":"LARGE","TLE_LINE1":"1 52453U 22049C   23119.30375488 -.00000177  00000-0  69862-5 0  9992","ARG_OF_PERICENTER":"102.9912","OBJECT_ID":"2022-049C","EPHEMERIS_TYPE":"0","ELEMENT_SET_NO":"999","COUNTRY_CODE":"US","EPOCH":"2023-04-29T07:17:24.421632","DECAY_DATE":null,"LAUNCH_DATE":"2022-05-06","CENTER_NAME":"EARTH","MEAN_ELEMENT_THEORY":"SGP4","OBJECT_NAME":"STARLINK-3872","APOAPSIS":"540.380","TLE_LINE2":"2 52453  53.2172  82.0372 0000947 102.9912 257.1186 15.08846815 54293","TIME_SYSTEM":"UTC","SITE":"AFETR","ECCENTRICITY":"0.00009470","PERIOD":"95.437","PERIAPSIS":"539.069"},{"INCLINATION":"53.2158","NORAD_CAT_ID":"52454","RA_OF_ASC_NODE":"82.0210","MEAN_MOTION":"15.08848022","REV_AT_EPOCH":"5429","MEAN_MOTION_DDOT":"0.0000000000000","CLASSIFICATION_TYPE":"U","MEAN_ANOMALY":"264.0763","REF_FRAME":"TEME","MEAN_MOTION_DOT":"0.00001506","OBJECT_TYPE":"PAYLOAD","FILE":"3896517","SEMIMAJOR_AXIS":"6917.856","GP_ID":"230930031","TLE_LINE1":"1 52454U 22049D   23119.30743483  .00001506  00000-0  11263-3 0  9993","BSTAR":"0.00011263000000","RCS_SIZE":"MEDIUM","EPHEMERIS_TYPE":"0","OBJECT_ID":"2022-049D","ARG_OF_PERICENTER":"96.0358","COUNTRY_CODE":"US","ELEMENT_SET_NO":"999","DECAY_DATE":null,"EPOCH":"2023-04-29T07:22:42.369312","OBJECT_NAME":"STARLINK-3888","APOAPSIS":"540.501","TIME_SYSTEM":"UTC","TLE_LINE2":"2 52454  53.2158  82.0210 0001127  96.0358 264.0763 15.08848022 54297","MEAN_ELEMENT_THEORY":"SGP4","CENTER_NAME":"EARTH","LAUNCH_DATE":"2022-05-06","PERIAPSIS":"538.941","ECCENTRICITY":"0.00011270","PERIOD":"95.437","SITE":"AFETR"},{"GP_ID":"230930781","SEMIMAJOR_AXIS":"6917.839","FILE":"3896517","OBJECT_TYPE":"PAYLOAD","MEAN_MOTION_DOT":"0.00006975","REF_FRAME":"TEME","MEAN_ANOMALY":"267.2141","CLASSIFICATION_TYPE":"U","MEAN_MOTION_DDOT":"0.0000000000000","REV_AT_EPOCH":"5429","MEAN_MOTION":"15.08853531","RA_OF_ASC_NODE":"82.0506","NORAD_CAT_ID":"52455","INCLINATION":"53.2158","ARG_OF_PERICENTER":"92.9006","EPHEMERIS_TYPE":"0","OBJECT_ID":"2022-049E","RCS_SIZE":"LARGE","BSTAR":"0.00045573000000","TLE_LINE1":"1 52455U 22049E   23119.30103053  .00006975  00000-0  45573-3 0  9993","EPOCH":"2023-04-29T07:13:29.037792","DECAY_DATE":null,"ELEMENT_SET_NO":"999","COUNTRY_CODE":"US","SITE":"AFETR","PERIOD":"95.437","ECCENTRICITY":"0.00013490","PERIAPSIS":"538.771","LAUNCH_DATE":"2022-05-06","CENTER_NAME":"EARTH","MEAN_ELEMENT_THEORY":"SGP4","TLE_LINE2":"2 52455  53.2158  82.0506 0001349  92.9006 267.2141 15.08853531 54293","TIME_SYSTEM":"UTC","OBJECT_NAME":"STARLINK-3890","APOAPSIS":"540.637"},{"ARG_OF_PERICENTER":"82.2569","OBJECT_ID":"2022-049F","EPHEMERIS_TYPE":"0","BSTAR":"-0.00009466600000","RCS_SIZE":"LARGE","TLE_LINE1":"1 52456U 22049F   23119.89351470 -.00001794  00000-0 -94666-4 0  9990","SEMIMAJOR_AXIS":"6917.867","GP_ID":"230939460","REF_FRAME":"TEME","MEAN_MOTION_DOT":"-0.00001794","FILE":"3896795","OBJECT_TYPE":"PAYLOAD","CLASSIFICATION_TYPE":"U","MEAN_ANOMALY":"277.8574","REV_AT_EPOCH":"5454","MEAN_MOTION_DDOT":"0.0000000000000","RA_OF_ASC_NODE":"79.3910","MEAN_MOTION":"15.08844299","INCLINATION":"53.2166","NORAD_CAT_ID":"52456","SITE":"AFETR","ECCENTRICITY":"0.00013240","PERIOD":"95.437","PERIAPSIS":"538.816","LAUNCH_DATE":"2022-05-06","CENTER_NAME":"EARTH","MEAN_ELEMENT_THEORY":"SGP4","APOAPSIS":"540.648","OBJECT_NAME":"STARLINK-3896","TLE_LINE2":"2 52456  53.2166  79.3910 0001324  82.2569 277.8574 15.08844299 54546","TIME_SYSTEM":"UTC","EPOCH":"2023-04-29T21:26:39.670080","DECAY_DATE":null,"ELEMENT_SET_NO":"999","COUNTRY_CODE":"US"},{"NORAD_CAT_ID":"52457","INCLINATION":"53.2151","MEAN_MOTION_DDOT":"0.0000000000000","REV_AT_EPOCH":"5429","MEAN_MOTION":"15.08845275","RA_OF_ASC_NODE":"82.0831","MEAN_ANOMALY":"275.3576","CLASSIFICATION_TYPE":"U","GP_ID":"230929781","SEMIMAJOR_AXIS":"6917.864","FILE":"3896517","OBJECT_TYPE":"PAYLOAD","MEAN_MOTION_DOT":"0.00000444","REF_FRAME":"TEME","TLE_LINE1":"1 52457U 22049G   23119.29367315  .00000444  00000-0  45972-4 0  9995","RCS_SIZE":"LARGE","BSTAR":"0.00004597200000","OBJECT_ID":"2022-049G","EPHEMERIS_TYPE":"0","ARG_OF_PERICENTER":"84.7576","COUNTRY_CODE":"US","ELEMENT_SET_NO":"999","DECAY_DATE":null,"EPOCH":"2023-04-29T07:02:53.360160","MEAN_ELEMENT_THEORY":"SGP4","TLE_LINE2":"2 52457  53.2151  82.0831 0001394  84.7576 275.3576 15.08845275 54298","TIME_SYSTEM":"UTC","APOAPSIS":"540.694","OBJECT_NAME":"STARLINK-3899","LAUNCH_DATE":"2022-05-06","CENTER_NAME":"EARTH","PERIAPSIS":"538.765","SITE":"AFETR","PERIOD":"95.437","ECCENTRICITY":"0.00013940"},{"COUNTRY_CODE":"US","ELEMENT_SET_NO":"999","DECAY_DATE":null,"EPOCH":"2023-04-29T06:57:35.515296","TIME_SYSTEM":"UTC","TLE_LINE2":"2 52458  53.2167  82.1004 0000974  79.9376 280.1726 15.08836225 54292","OBJECT_NAME":"STARLINK-3898","APOAPSIS":"540.431","MEAN_ELEMENT_THEORY":"SGP4","CENTER_NAME":"EARTH","LAUNCH_DATE":"2022-05-06","PERIAPSIS":"539.083","PERIOD":"95.438","ECCENTRICITY":"0.00009740","SITE":"AFETR","NORAD_CAT_ID":"52458","INCLINATION":"53.2167","MEAN_MOTION":"15.08836225","RA_OF_ASC_NODE":"82.1004","MEAN_MOTION_DDOT":"0.0000000000000","REV_AT_EPOCH":"5429","MEAN_ANOMALY":"280.1726","CLASSIFICATION_TYPE":"U","OBJECT_TYPE":"PAYLOAD","FILE":"3896517","MEAN_MOTION_DOT":"0.00000466","REF_FRAME":"TEME","GP_ID":"230929531","SEMIMAJOR_AXIS":"6917.892","TLE_LINE1":"1 52458U 22049H   23119.28999439  .00000466  00000-0  47334-4 0  9991","RCS_SIZE":"LARGE","BSTAR":"0.00004733400000","EPHEMERIS_TYPE":"0","OBJECT_ID":"2022-049H","ARG_OF_PERICENTER":"79.9376"},{"TLE_LINE1":"1 52459U 22049J   23119.87139748  .00006077  00000-0  39957-3 0  9991","RCS_SIZE":"LARGE","BSTAR":"0.00039957000000","EPHEMERIS_TYPE":"0","OBJECT_ID":"2022-049J","ARG_OF_PERICENTER":"87.3653","NORAD_CAT_ID":"52459","INCLINATION":"53.2165","MEAN_MOTION_DDOT":"0.0000000000000","REV_AT_EPOCH":"5467","MEAN_MOTION":"15.08842140","RA_OF_ASC_NODE":"69.4931","MEAN_ANOMALY":"272.7456","CLASSIFICATION_TYPE":"U","GP_ID":"230939800","SEMIMAJOR_AXIS":"6917.874","OBJECT_TYPE":"PAYLOAD","FILE":"3896777","REF_FRAME":"TEME","MEAN_MOTION_DOT":"0.00006077","MEAN_ELEMENT_THEORY":"SGP4","TLE_LINE2":"2 52459  53.2165  69.4931 0001027  87.3653 272.7456 15.08842140 54671","TIME_SYSTEM":"UTC","APOAPSIS":"540.449","OBJECT_NAME":"STARLINK-3856","LAUNCH_DATE":"2022-05-06","CENTER_NAME":"EARTH","PERIAPSIS":"539.028","SITE":"AFETR","PERIOD":"95.437","ECCENTRICITY":"0.00010270","COUNTRY_CODE":"US","ELEMENT_SET_NO":"999","DECAY_DATE":null,"EPOCH":"2023-04-29T20:54:48.742272"},{"SITE":"AFETR","ECCENTRICITY":"0.00012990","PERIOD":"95.437","PERIAPSIS":"538.807","LAUNCH_DATE":"2022-05-06","CENTER_NAME":"EARTH","MEAN_ELEMENT_THEORY":"SGP4","OBJECT_NAME":"STARLINK-3865","APOAPSIS":"540.605","TIME_SYSTEM":"UTC","TLE_LINE2":"2 52460  53.2181  72.1535 0001299  79.3607 280.7532 15.08852878 54586","EPOCH":"2023-04-29T06:25:43.819392","DECAY_DATE":null,"ELEMENT_SET_NO":"999","COUNTRY_CODE":"US","ARG_OF_PERICENTER":"79.3607","OBJECT_ID":"2022-049K","EPHEMERIS_TYPE":"0","BSTAR":"0.00011797000000","RCS_SIZE":"LARGE","TLE_LINE1":"1 52460U 22049K   23119.26786828  .00001591  00000-0  11797-3 0  9991","SEMIMAJOR_AXIS":"6917.841","GP_ID":"230939409","REF_FRAME":"TEME","MEAN_MOTION_DOT":"0.00001591","OBJECT_TYPE":"PAYLOAD","FILE":"3896777","CLASSIFICATION_TYPE":"U","MEAN_ANOMALY":"280.7532","REV_AT_EPOCH":"5458","MEAN_MOTION_DDOT":"0.0000000000000","RA_OF_ASC_NODE":"72.1535","MEAN_MOTION":"15.08852878","INCLINATION":"53.2181","NORAD_CAT_ID":"52460"}];
